[{"OBJECT_NAME":"ONEWEB-0449","OBJECT_ID":"2022-012W","EPOCH":"2025-08-24T14:35:43.648512","MEAN_MOTION":13.10378737,"ECCENTRICITY":0.00022861,"INCLINATION":87.8753,"RA_OF_ASC_NODE":95.4144,"ARG_OF_PERICENTER":89.1525,"MEAN_ANOMALY":270.9864,"EPHEMERIS_TYPE":0,"CLASSIFICATION_TYPE":"U","NORAD_CAT_ID":51642,"ELEMENT_SET_NO":999,"REV_AT_EPOCH":17046,"BSTAR":-0.0014182046,"MEAN_MOTION_DOT":-4.82e-6,"MEAN_MOTION_DDOT":0},{"OBJECT_NAME":"ONEWEB-0451","OBJECT_ID":"2022-012X","EPOCH":"2025-08-24T14:27:05.564736","MEAN_MOTION":13.17651002,"ECCENTRICITY":0.00019185,"INCLINATION":87.9031,"RA_OF_ASC_NODE":64.8391,"ARG_OF_PERICENTER":91.5467,"MEAN_ANOMALY":268.5885,"EPHEMERIS_TYPE":0,"CLASSIFICATION_TYPE":"U","NORAD_CAT_ID":51643,"ELEMENT_SET_NO":999,"REV_AT_EPOCH":17460,"BSTAR":0.00015549448,"MEAN_MOTION_DOT":7.3e-7,"MEAN_MOTION_DDOT":0},{"OBJECT_NAME":"ONEWEB-0452","OBJECT_ID":"2022-012Y","EPOCH":"2025-08-24T14:24:41.865984","MEAN_MOTION":13.17649268,"ECCENTRICITY":0.00020395,"INCLINATION":87.9022,"RA_OF_ASC_NODE":64.9032,"ARG_OF_PERICENTER":88.2697,"MEAN_ANOMALY":271.8668,"EPHEMERIS_TYPE":0,"CLASSIFICATION_TYPE":"U","NORAD_CAT_ID":51644,"ELEMENT_SET_NO":999,"REV_AT_EPOCH":17461,"BSTAR":0.00029570332,"MEAN_MOTION_DOT":1.28e-6,"MEAN_MOTION_DDOT":0},{"OBJECT_NAME":"ONEWEB-0456","OBJECT_ID":"2022-012AA","EPOCH":"2025-08-24T14:50:02.087808","MEAN_MOTION":13.10370996,"ECCENTRICITY":0.00016588,"INCLINATION":87.8763,"RA_OF_ASC_NODE":95.3716,"ARG_OF_PERICENTER":75.7447,"MEAN_ANOMALY":284.3865,"EPHEMERIS_TYPE":0,"CLASSIFICATION_TYPE":"U","NORAD_CAT_ID":51646,"ELEMENT_SET_NO":999,"REV_AT_EPOCH":17050,"BSTAR":4.752563e-6,"MEAN_MOTION_DOT":1.4e-7,"MEAN_MOTION_DDOT":0},{"OBJECT_NAME":"ONEWEB-0457","OBJECT_ID":"2022-012AB","EPOCH":"2025-08-24T14:16:36.802560","MEAN_MOTION":13.10373997,"ECCENTRICITY":0.00018435,"INCLINATION":87.8762,"RA_OF_ASC_NODE":95.4342,"ARG_OF_PERICENTER":94.1743,"MEAN_ANOMALY":265.9595,"EPHEMERIS_TYPE":0,"CLASSIFICATION_TYPE":"U","NORAD_CAT_ID":51647,"ELEMENT_SET_NO":999,"REV_AT_EPOCH":17050,"BSTAR":0.0018891502,"MEAN_MOTION_DOT":6.72e-6,"MEAN_MOTION_DDOT":0},{"OBJECT_NAME":"ONEWEB-0458","OBJECT_ID":"2022-012AC","EPOCH":"2025-08-24T14:47:39.078528","MEAN_MOTION":13.10370005,"ECCENTRICITY":0.00018989,"INCLINATION":87.875,"RA_OF_ASC_NODE":95.4022,"ARG_OF_PERICENTER":81.9021,"MEAN_ANOMALY":278.2322,"EPHEMERIS_TYPE":0,"CLASSIFICATION_TYPE":"U","NORAD_CAT_ID":51648,"ELEMENT_SET_NO":999,"REV_AT_EPOCH":17046,"BSTAR":0.0003058521,"MEAN_MOTION_DOT":1.19e-6,"MEAN_MOTION_DDOT":0},{"OBJECT_NAME":"ONEWEB-0461","OBJECT_ID":"2022-012AD","EPOCH":"2025-08-24T13:06:56.323008","MEAN_MOTION":13.17646142,"ECCENTRICITY":0.00016595,"INCLINATION":87.9029,"RA_OF_ASC_NODE":64.8642,"ARG_OF_PERICENTER":92.8361,"MEAN_ANOMALY":267.2961,"EPHEMERIS_TYPE":0,"CLASSIFICATION_TYPE":"U","NORAD_CAT_ID":51649,"ELEMENT_SET_NO":999,"REV_AT_EPOCH":17482,"BSTAR":6.5204107e-5,"MEAN_MOTION_DOT":3.8e-7,"MEAN_MOTION_DDOT":0},{"OBJECT_NAME":"ONEWEB-0463","OBJECT_ID":"2022-012AE","EPOCH":"2025-08-24T12:40:11.691840","MEAN_MOTION":13.17650004,"ECCENTRICITY":0.00018004,"INCLINATION":87.9019,"RA_OF_ASC_NODE":64.9303,"ARG_OF_PERICENTER":88.3259,"MEAN_ANOMALY":271.8079,"EPHEMERIS_TYPE":0,"CLASSIFICATION_TYPE":"U","NORAD_CAT_ID":51650,"ELEMENT_SET_NO":999,"REV_AT_EPOCH":17460,"BSTAR":-5.3456292e-5,"MEAN_MOTION_DOT":-8.0e-8,"MEAN_MOTION_DDOT":0},{"OBJECT_NAME":"ONEWEB-0464","OBJECT_ID":"2022-012AF","EPOCH":"2025-08-24T14:42:54.337824","MEAN_MOTION":13.10376379,"ECCENTRICITY":0.0001695,"INCLINATION":87.8759,"RA_OF_ASC_NODE":95.4403,"ARG_OF_PERICENTER":72.7065,"MEAN_ANOMALY":287.4248,"EPHEMERIS_TYPE":0,"CLASSIFICATION_TYPE":"U","NORAD_CAT_ID":51651,"ELEMENT_SET_NO":999,"REV_AT_EPOCH":17048,"BSTAR":0.00092236032,"MEAN_MOTION_DOT":3.35e-6,"MEAN_MOTION_DDOT":0},{"OBJECT_NAME":"ONEWEB-0468","OBJECT_ID":"2022-012AG","EPOCH":"2025-08-24T14:52:25.290624","MEAN_MOTION":13.10370778,"ECCENTRICITY":0.00017442,"INCLINATION":87.8759,"RA_OF_ASC_NODE":95.4309,"ARG_OF_PERICENTER":80.8559,"MEAN_ANOMALY":279.2766,"EPHEMERIS_TYPE":0,"CLASSIFICATION_TYPE":"U","NORAD_CAT_ID":51652,"ELEMENT_SET_NO":999,"REV_AT_EPOCH":17046,"BSTAR":-3.71098e-5,"MEAN_MOTION_DOT":0,"MEAN_MOTION_DDOT":0},{"OBJECT_NAME":"ONEWEB-0473","OBJECT_ID":"2022-012AH","EPOCH":"2025-08-24T14:30:55.040544","MEAN_MOTION":13.10373247,"ECCENTRICITY":0.00018152,"INCLINATION":87.8762,"RA_OF_ASC_NODE":95.437,"ARG_OF_PERICENTER":79.4408,"MEAN_ANOMALY":280.6924,"EPHEMERIS_TYPE":0,"CLASSIFICATION_TYPE":"U","NORAD_CAT_ID":51653,"ELEMENT_SET_NO":999,"REV_AT_EPOCH":17046,"BSTAR":0.0017315612,"MEAN_MOTION_DOT":6.17e-6,"MEAN_MOTION_DDOT":0},{"OBJECT_NAME":"ONEWEB-0474","OBJECT_ID":"2022-012AJ","EPOCH":"2025-08-24T14:18:59.177664","MEAN_MOTION":13.10374019,"ECCENTRICITY":0.00018071,"INCLINATION":87.8766,"RA_OF_ASC_NODE":95.3992,"ARG_OF_PERICENTER":74.1319,"MEAN_ANOMALY":286.0007,"EPHEMERIS_TYPE":0,"CLASSIFICATION_TYPE":"U","NORAD_CAT_ID":51654,"ELEMENT_SET_NO":999,"REV_AT_EPOCH":17045,"BSTAR":0.0016641415,"MEAN_MOTION_DOT":5.94e-6,"MEAN_MOTION_DDOT":0},{"OBJECT_NAME":"ONEWEB-0475","OBJECT_ID":"2022-012AK","EPOCH":"2025-08-24T12:57:12.776544","MEAN_MOTION":13.17649382,"ECCENTRICITY":0.00023456,"INCLINATION":87.9022,"RA_OF_ASC_NODE":64.9097,"ARG_OF_PERICENTER":73.2612,"MEAN_ANOMALY":286.8777,"EPHEMERIS_TYPE":0,"CLASSIFICATION_TYPE":"U","NORAD_CAT_ID":51655,"ELEMENT_SET_NO":999,"REV_AT_EPOCH":17462,"BSTAR":0.0001422312,"MEAN_MOTION_DOT":6.8e-7,"MEAN_MOTION_DDOT":0},{"OBJECT_NAME":"ONEWEB-0490","OBJECT_ID":"2022-138A","EPOCH":"2025-08-24T14:45:44.989920","MEAN_MOTION":13.19725526,"ECCENTRICITY":0.00017203,"INCLINATION":87.9271,"RA_OF_ASC_NODE":3.9096,"ARG_OF_PERICENTER":92.0485,"MEAN_ANOMALY":268.0845,"EPHEMERIS_TYPE":0,"CLASSIFICATION_TYPE":"U","NORAD_CAT_ID":54113,"ELEMENT_SET_NO":999,"REV_AT_EPOCH":13771,"BSTAR":0.00020757524,"MEAN_MOTION_DOT":9.6e-7,"MEAN_MOTION_DDOT":0},{"OBJECT_NAME":"ONEWEB-0492","OBJECT_ID":"2022-138B","EPOCH":"2025-08-24T15:22:07.342464","MEAN_MOTION":13.19728044,"ECCENTRICITY":0.00016011,"INCLINATION":87.9268,"RA_OF_ASC_NODE":3.9277,"ARG_OF_PERICENTER":97.3461,"MEAN_ANOMALY":262.7853,"EPHEMERIS_TYPE":0,"CLASSIFICATION_TYPE":"U","NORAD_CAT_ID":54114,"ELEMENT_SET_NO":999,"REV_AT_EPOCH":13772,"BSTAR":0.00017522642,"MEAN_MOTION_DOT":8.3e-7,"MEAN_MOTION_DDOT":0},{"OBJECT_NAME":"ONEWEB-0495","OBJECT_ID":"2022-138C","EPOCH":"2025-08-24T14:50:18.264480","MEAN_MOTION":13.19725424,"ECCENTRICITY":0.00017079,"INCLINATION":87.9257,"RA_OF_ASC_NODE":3.9423,"ARG_OF_PERICENTER":74.9946,"MEAN_ANOMALY":285.1376,"EPHEMERIS_TYPE":0,"CLASSIFICATION_TYPE":"U","NORAD_CAT_ID":54115,"ELEMENT_SET_NO":999,"REV_AT_EPOCH":13770,"BSTAR":0.00016482554,"MEAN_MOTION_DOT":7.9e-7,"MEAN_MOTION_DDOT":0},{"OBJECT_NAME":"ONEWEB-0497","OBJECT_ID":"2022-138D","EPOCH":"2025-08-24T15:08:30.309504","MEAN_MOTION":13.19726056,"ECCENTRICITY":0.00017704,"INCLINATION":87.9272,"RA_OF_ASC_NODE":3.9137,"ARG_OF_PERICENTER":95.1525,"MEAN_ANOMALY":264.981,"EPHEMERIS_TYPE":0,"CLASSIFICATION_TYPE":"U","NORAD_CAT_ID":54116,"ELEMENT_SET_NO":999,"REV_AT_EPOCH":13769,"BSTAR":5.6272126e-5,"MEAN_MOTION_DOT":3.5e-7,"MEAN_MOTION_DDOT":0}]
