ONEWEB-0449             
1 51642U 22012W   25236.60814408 -.00000482  00000+0 -14182-2 0  9997
2 51642  87.8753  95.4144 0002286  89.1525 270.9864 13.10378737170467
ONEWEB-0451             
1 51643U 22012X   25236.60214774  .00000073  00000+0  15549-3 0  9991
2 51643  87.9031  64.8391 0001918  91.5467 268.5885 13.17651002174607
ONEWEB-0452             
1 51644U 22012Y   25236.60048456  .00000128  00000+0  29570-3 0  9994
2 51644  87.9022  64.9032 0002039  88.2697 271.8668 13.17649268174612
ONEWEB-0456             
1 51646U 22012AA  25236.61807972  .00000014  00000+0  47526-5 0  9990
2 51646  87.8763  95.3716 0001658  75.7447 284.3865 13.10370996170506
ONEWEB-0457             
1 51647U 22012AB  25236.59487040  .00000672  00000+0  18892-2 0  9999
2 51647  87.8762  95.4342 0001843  94.1743 265.9595 13.10373997170501
ONEWEB-0458             
1 51648U 22012AC  25236.61642452  .00000119  00000+0  30585-3 0  9993
2 51648  87.8750  95.4022 0001898  81.9021 278.2322 13.10370005170464
ONEWEB-0461             
1 51649U 22012AD  25236.54648522  .00000038  00000+0  65204-4 0  9997
2 51649  87.9029  64.8642 0001659  92.8361 267.2961 13.17646142174822
ONEWEB-0463             
1 51650U 22012AE  25236.52791310 -.00000008  00000+0 -53456-4 0  9996
2 51650  87.9019  64.9303 0001800  88.3259 271.8079 13.17650004174601
ONEWEB-0464             
1 51651U 22012AF  25236.61312891  .00000335  00000+0  92236-3 0  9999
2 51651  87.8759  95.4403 0001695  72.7065 287.4248 13.10376379170482
ONEWEB-0468             
1 51652U 22012AG  25236.61973716  .00000000  00000+0 -37110-4 0  9990
2 51652  87.8759  95.4309 0001744  80.8559 279.2766 13.10370778170460
ONEWEB-0473             
1 51653U 22012AH  25236.60480371  .00000617  00000+0  17316-2 0  9997
2 51653  87.8762  95.4370 0001815  79.4408 280.6924 13.10373247170465
ONEWEB-0474             
1 51654U 22012AJ  25236.59651826  .00000594  00000+0  16641-2 0  9995
2 51654  87.8766  95.3992 0001807  74.1319 286.0007 13.10374019170452
ONEWEB-0475             
1 51655U 22012AK  25236.53973121  .00000068  00000+0  14223-3 0  9996
2 51655  87.9022  64.9097 0002345  73.2612 286.8777 13.17649382174621
ONEWEB-0490             
1 54113U 22138A   25236.61510405  .00000096  00000+0  20758-3 0  9999
2 54113  87.9271   3.9096 0001720  92.0485 268.0845 13.19725526137718
ONEWEB-0492             
1 54114U 22138B   25236.64036276  .00000083  00000+0  17523-3 0  9994
2 54114  87.9268   3.9277 0001601  97.3461 262.7853 13.19728044137725
ONEWEB-0495             
1 54115U 22138C   25236.61826695  .00000079  00000+0  16483-3 0  9993
2 54115  87.9257   3.9423 0001707  74.9946 285.1376 13.19725424137709
ONEWEB-0497             
1 54116U 22138D   25236.63090636  .00000035  00000+0  56272-4 0  9997
2 54116  87.9272   3.9137 0001770  95.1525 264.9810 13.19726056137695
